TDRS 3                  
1 19548U 88091B   26187.77892087 -.00000290  00000+0  00000+0 0  9995
2 19548  12.5872 340.8665 0036889 355.9701 179.3543  1.00266233125586
FLTSATCOM 8 (USA 46)    
1 20253U 89077A   26187.31455632 -.00000359  00000+0  00000+0 0  9992
2 20253  12.4160 351.0481 0003683  64.7431 107.4357  1.00267590260752
SKYNET 4C               
1 20776U 90079A   26188.05002653  .00000015  00000+0  00000+0 0  9997
2 20776  13.3319 349.6839 0003190 134.1393  59.9689  0.98576254   230
TDRS 5                  
1 21639U 91054B   26187.68404394  .00000091  00000+0  00000+0 0  9990
2 21639  14.0685 353.6290 0007013 256.7144 112.8916  1.00270640127913
TDRS 6                  
1 22314U 93003B   26188.14362744 -.00000289  00000+0  00000+0 0  9991
2 22314  14.1830 356.9095 0009011 180.2054 113.5403  1.00264063122609
UFO 2 (USA 95)          
1 22787U 93056A   26187.65172553  .00000133  00000+0  00000+0 0  9992
2 22787  11.9014   3.4464 0003975   9.9975 174.5391  1.00277966118747
USA 99 (MILSTAR-1 1)    
1 22988U 94009A   26187.55436426  .00000007  00000+0  00000+0 0  9995
2 22988  17.6539  27.5021 0001496 186.4187 167.1075  0.98720313 33134
UFO 4 (USA 108)         
1 23467U 95003A   26187.82262977 -.00000012  00000+0  00000+0 0  9998
2 23467   9.6827  13.0674 0003046  88.8565 291.2856  1.00274880115156
TDRS 7                  
1 23613U 95035B   26187.83847456 -.00000233  00000+0  00000+0 0  9993
2 23613  13.3689 348.0540 0011689  84.0388 243.7497  1.00276110113444
USA 115 (MILSTAR-1 2)   
1 23712U 95060A   26188.19786742 -.00000195  00000+0  00000+0 0  9998
2 23712  14.0796   3.5916 0006306 120.6225 142.1553  1.00271722 33088
INMARSAT 3-F1           
1 23839U 96020A   26188.12207676  .00000019  00000+0  00000+0 0  9996
2 23839  10.6415  46.4493 0004164  78.4427  87.8845  0.99978757110453
INMARSAT 3-F2           
1 24307U 96053A   26187.95698301 -.00000345  00000+0  00000+0 0  9995
2 24307   9.9005  53.7335 0006439  46.9335 298.7784  0.99995844109113
INMARSAT 3-F3           
1 24674U 96070A   26187.79299785  .00000095  00000+0  00000+0 0  9997
2 24674  10.3596  49.4637 0003399  63.4773 119.6991  0.99991783108107
USA 134                 
1 25019U 97065A   26188.20379919 -.00000055  00000+0  00000+0 0  9998
2 25019  12.8065  21.5660 0002325 339.4007 245.1340  1.00272054 33151
INMARSAT 3-F5           
1 25153U 98006B   26188.15633623 -.00000282  00000+0  00000+0 0  9994
2 25153   9.7348  53.0560 0003980  56.7041 177.6298  1.00268167104096
ABS-6                   
1 25924U 99053A   26187.96270303 -.00000103  00000+0  00000+0 0  9995
2 25924   0.0654 266.6861 0003425 184.1953 339.6560  1.00278444 98031
UFO 10 (USA 146)        
1 25967U 99063A   26187.85532279 -.00000179  00000+0  00000+0 0  9997
2 25967   9.8547  27.1062 0001268  94.8585  87.7967  1.00273975 97541
ASIASTAR                
1 26107U 00016A   26187.52426034 -.00000323  00000+0  00000+0 0  9990
2 26107   9.1715  57.9433 0004303  51.1409 109.1068  1.00267261 96119
USA 149 (DSP 20)        
1 26356U 00024A   26188.14555499  .00000103  00000+0  00000+0 0  9997
2 26356  13.1846  11.7035 0001417 300.5240 220.4205  1.00283502 33115
TDRS 8                  
1 26388U 00034A   26188.09051722 -.00000189  00000+0  00000+0 0  9992
2 26388  12.7143  31.1513 0004411  30.1842 341.1355  1.00273904 95382
NSS-11                  
1 26554U 00059A   26188.10844939  .00000039  00000+0  00000+0 0  9999
2 26554   2.1748  81.1601 0002907  27.4312  31.5289  1.00272146 41499
USA 153                 
1 26575U 00065A   26187.95776301 -.00000316  00000+0  00000+0 0  9997
2 26575  11.6572  35.2527 0002216  55.8077 313.0665  1.00274909 33132
AMC-6                   
1 26580U 00067A   26188.15388433  .00000103  00000+0  00000+0 0  9996
2 26580   0.1998  83.5958 0003860  34.8316  87.0608  1.00271296 94099
USA 157 (MILSTAR-2 2)   
1 26715U 01009A   26188.21004411  .00000117  00000+0  00000+0 0  9996
2 26715  11.5634  19.6321 0040421 178.7273  12.3402  1.00271177 33140
INTELSAT 902 (IS-902)   
1 26900U 01039A   26187.90857825 -.00000272  00000+0  00000+0 0  9998
2 26900   6.1655  71.5417 0004302  32.4645  97.8422  1.00270287 90895
USA 164 (MILSTAR-2 3)   
1 27168U 02001A   26188.16572670  .00000106  00000+0  00000+0 0  9991
2 27168  11.2020  21.7778 0098697   8.9573 333.0056  1.00274452 33152
INTELSAT 904 (IS-904)   
1 27380U 02007A   26188.18794693 -.00000214  00000+0  00000+0 0  9997
2 27380   6.9666  68.9424 0005679  20.0221 232.3782  1.00273127 51963
DIRECTV 5 (TEMPO 1)     
1 27426U 02023A   26188.12388441 -.00000045  00000+0  00000+0 0  9992
2 27426   4.9254  75.0633 0003152  32.6464 111.8817  1.00271117 88325
INTELSAT 905 (IS-905)   
1 27438U 02027A   26188.21505654  .00000105  00000+0  00000+0 0  9992
2 27438   6.8004  69.5566 0003714  40.5766 115.2715  1.00271946 51563
GALAXY 3C (G-3C)        
1 27445U 02030A   26187.84108985 -.00000140  00000+0  00000+0 0  9998
2 27445   3.7806  77.7225 0001694  34.3965  20.6681  1.00271338 46691
INTELSAT 906 (IS-906)   
1 27513U 02041A   26188.15780127  .00000025  00000+0  00000+0 0  9996
2 27513   5.8519  72.6757 0004013  15.2796 318.1098  1.00271502 87227
