OBJECT_NAME,OBJECT_ID,EPOCH,MEAN_MOTION,ECCENTRICITY,INCLINATION,RA_OF_ASC_NODE,ARG_OF_PERICENTER,MEAN_ANOMALY,EPHEMERIS_TYPE,CLASSIFICATION_TYPE,NORAD_CAT_ID,ELEMENT_SET_NO,REV_AT_EPOCH,BSTAR,MEAN_MOTION_DOT,MEAN_MOTION_DDOT
TDRS 3,1988-091B,2026-07-06T18:41:38.763168,1.00266233,.0036889,12.5872,340.8665,355.9701,179.3543,0,U,19548,999,12558,0,-.29E-5,0
FLTSATCOM 8 (USA 46),1989-077A,2026-07-06T07:32:57.666048,1.00267590,.00036835,12.4160,351.0481,64.7431,107.4357,0,U,20253,999,26075,0,-.359E-5,0
SKYNET 4C,1990-079A,2026-07-07T01:12:02.292192,0.98576254,.000319,13.3319,349.6839,134.1393,59.9689,0,U,20776,999,23,0,.15E-6,0
TDRS 5,1991-054B,2026-07-06T16:25:01.396416,1.00270640,.0007013,14.0685,353.6290,256.7144,112.8916,0,U,21639,999,12791,0,.91E-6,0
TDRS 6,1993-003B,2026-07-07T03:26:49.410816,1.00264063,.0009011,14.1830,356.9095,180.2054,113.5403,0,U,22314,999,12260,0,-.289E-5,0
UFO 2 (USA 95),1993-056A,2026-07-06T15:38:29.085792,1.00277966,.0003975,11.9014,3.4464,9.9975,174.5391,0,U,22787,999,11874,0,.133E-5,0
USA 99 (MILSTAR-1 1),1994-009A,2026-07-06T13:18:17.072064,0.98720313,.0001496,17.6539,27.5021,186.4187,167.1075,0,U,22988,999,3313,0,.7E-7,0
UFO 4 (USA 108),1995-003A,2026-07-06T19:44:35.212128,1.00274880,.0003046,9.6827,13.0674,88.8565,291.2856,0,U,23467,999,11515,0,-.12E-6,0
TDRS 7,1995-035B,2026-07-06T20:07:24.201984,1.00276110,.0011689,13.3689,348.0540,84.0388,243.7497,0,U,23613,999,11344,0,-.233E-5,0
USA 115 (MILSTAR-1 2),1995-060A,2026-07-07T04:44:55.745088,1.00271722,.0006306,14.0796,3.5916,120.6225,142.1553,0,U,23712,999,3308,0,-.195E-5,0
INMARSAT 3-F1,1996-020A,2026-07-07T02:55:47.432064,0.99978757,.0004164,10.6415,46.4493,78.4427,87.8845,0,U,23839,999,11045,0,.19E-6,0
INMARSAT 3-F2,1996-053A,2026-07-06T22:58:03.332064,0.99995844,.0006439,9.9005,53.7335,46.9335,298.7784,0,U,24307,999,10911,0,-.345E-5,0
INMARSAT 3-F3,1996-070A,2026-07-06T19:01:55.014240,0.99991783,.0003399,10.3596,49.4637,63.4773,119.6991,0,U,24674,999,10810,0,.95E-6,0
USA 134,1997-065A,2026-07-07T04:53:28.250016,1.00272054,.0002325,12.8065,21.5660,339.4007,245.1340,0,U,25019,999,3315,0,-.55E-6,0
INMARSAT 3-F5,1998-006B,2026-07-07T03:45:07.450272,1.00268167,.000398,9.7348,53.0560,56.7041,177.6298,0,U,25153,999,10409,0,-.282E-5,0
ABS-6,1999-053A,2026-07-06T23:06:17.541792,1.00278444,.0003425,0.0654,266.6861,184.1953,339.6560,0,U,25924,999,9803,0,-.103E-5,0
UFO 10 (USA 146),1999-063A,2026-07-06T20:31:39.889056,1.00273975,.0001268,9.8547,27.1062,94.8585,87.7967,0,U,25967,999,9754,0,-.179E-5,0
ASIASTAR,2000-016A,2026-07-06T12:34:56.093376,1.00267261,.00043038,9.1715,57.9433,51.1409,109.1068,0,U,26107,999,9611,0,-.323E-5,0
USA 149 (DSP 20),2000-024A,2026-07-07T03:29:35.951136,1.00283502,.0001417,13.1846,11.7035,300.5240,220.4205,0,U,26356,999,3311,0,.103E-5,0
TDRS 8,2000-034A,2026-07-07T02:10:20.687808,1.00273904,.0004411,12.7143,31.1513,30.1842,341.1355,0,U,26388,999,9538,0,-.189E-5,0
NSS-11,2000-059A,2026-07-07T02:36:10.027296,1.00272146,.0002907,2.1748,81.1601,27.4312,31.5289,0,U,26554,999,4149,0,.39E-6,0
USA 153,2000-065A,2026-07-06T22:59:10.724064,1.00274909,.0002216,11.6572,35.2527,55.8077,313.0665,0,U,26575,999,3313,0,-.316E-5,0
AMC-6,2000-067A,2026-07-07T03:41:35.606112,1.00271296,.000386,0.1998,83.5958,34.8316,87.0608,0,U,26580,999,9409,0,.103E-5,0
USA 157 (MILSTAR-2 2),2001-009A,2026-07-07T05:02:27.811104,1.00271177,.0040421,11.5634,19.6321,178.7273,12.3402,0,U,26715,999,3314,0,.117E-5,0
INTELSAT 902 (IS-902),2001-039A,2026-07-06T21:48:21.160800,1.00270287,.0004302,6.1655,71.5417,32.4645,97.8422,0,U,26900,999,9089,0,-.272E-5,0
USA 164 (MILSTAR-2 3),2002-001A,2026-07-07T03:58:38.786880,1.00274452,.0098697,11.2020,21.7778,8.9573,333.0056,0,U,27168,999,3315,0,.106E-5,0
INTELSAT 904 (IS-904),2002-007A,2026-07-07T04:30:38.614752,1.00273127,.0005679,6.9666,68.9424,20.0221,232.3782,0,U,27380,999,5196,0,-.214E-5,0
DIRECTV 5 (TEMPO 1),2002-023A,2026-07-07T02:58:23.613024,1.00271117,.0003152,4.9254,75.0633,32.6464,111.8817,0,U,27426,999,8832,0,-.45E-6,0
INTELSAT 905 (IS-905),2002-027A,2026-07-07T05:09:40.885056,1.00271946,.0003714,6.8004,69.5566,40.5766,115.2715,0,U,27438,999,5156,0,.105E-5,0
GALAXY 3C (G-3C),2002-030A,2026-07-06T20:11:10.163040,1.00271338,.0001694,3.7806,77.7225,34.3965,20.6681,0,U,27445,999,4669,0,-.14E-5,0
INTELSAT 906 (IS-906),2002-041A,2026-07-07T03:47:14.029728,1.00271502,.0004013,5.8519,72.6757,15.2796,318.1098,0,U,27513,999,8722,0,.25E-6,0
